NORAD_CAT_ID,OBJECT_NAME,OBJECT_TYPE,EPOCH,MEAN_MOTION,ECCENTRICITY,INCLINATION,RA_OF_ASC_NODE,ARG_OF_PERICENTER,MEAN_ANOMALY,BSTAR,MEAN_MOTION_DOT,MEAN_MOTION_DDOT,TLE_LINE0,TLE_LINE1,TLE_LINE2,SEMIMAJOR_AXIS,PERIOD,APOGEE,PERIGEE,DECAYED
52659.0,STARLINK-3960,PAYLOAD,2022-07-22 12:00:00,15.08853447,0.0001188,53.2127,347.6181,67.3676,274.3594,-0.00052795,-8.683e-05,0.0,0 STARLINK-3960,1 52659U 22053D   22203.50001157 -.00008683  00000-0 -52795-3 0  9995,2 52659  53.2127 347.6181 0001188  67.3676 274.3594 15.08853447 11025,6917.839,95.437,540.526,538.882,0.0
52659.0,STARLINK-3960,PAYLOAD,2022-07-22 20:00:01,15.08832283,0.0001284,53.2151,346.119,54.7909,298.5459,0.0057794,0.00092886,0.0,0 STARLINK-3960,1 52659U 22053D   22203.83334491  .00092886  00000-0  57794-2 0  9990,2 52659  53.2151 346.1190 0001284  54.7909 298.5459 15.08832283 11070,6917.904,95.438,540.6569999999998,538.881,0.0
52659.0,STARLINK-3960,PAYLOAD,2022-07-22 22:00:00,15.08896334,0.0001317,53.2153,345.7441,50.9279,35.2961,-0.0020117,-0.0003221,0.0,0 STARLINK-3960,1 52659U 22053D   22203.91667824 -.00032210  00000-0 -20117-2 0  9994,2 52659  53.2153 345.7441 0001317  50.9279  35.2961 15.08896334  1307,6917.708000000001,95.434,540.484,538.6619999999998,0.0
52659.0,STARLINK-3960,PAYLOAD,2022-07-23 06:00:00,15.08850368,0.0001177999999999,53.212,344.2503,67.694,30.1544,0.00055801,8.606e-05,0.0,0 STARLINK-3960,1 52659U 22053D   22204.25001157  .00008606  00000-0  55801-3 0  9992,2 52659  53.2120 344.2503 0001178  67.6940  30.1544 15.08850368 11139,6917.849,95.437,540.529,538.899,0.0
52659.0,STARLINK-3960,PAYLOAD,2022-07-23 14:00:01,15.08849363,0.0001348,53.212,342.7549,66.0964,43.4189,-0.0016725,-0.00026814,0.0,0 STARLINK-3960,1 52659U 22053D   22204.58335648 -.00026814  00000-0 -16725-2 0  9997,2 52659  53.2120 342.7549 0001348  66.0964  43.4189 15.08849363  1303,6917.852,95.437,540.649,538.784,0.0
52659.0,STARLINK-3960,PAYLOAD,2022-07-23 22:00:00,15.08844025,0.0001409999999999,53.2116,341.2587,59.8072,61.2398,0.00070001,0.00010871,0.0,0 STARLINK-3960,1 52659U 22053D   22204.91667824  .00010871  00000-0  70001-3 0  9990,2 52659  53.2116 341.2587 0001410  59.8072  61.2398 15.08844025 11237,6917.868,95.437,540.7090000000002,538.758,0.0
52659.0,STARLINK-3960,PAYLOAD,2022-07-24 14:00:01,15.08834594,0.0001498,53.2117,338.2652,67.6584,76.5666,-0.001249,-0.00020108,0.0,0 STARLINK-3960,1 52659U 22053D   22205.58334491 -.00020108  00000-0 -12490-2 0  9998,2 52659  53.2117 338.2652 0001498  67.6584  76.5666 15.08834594 11336,6917.897,95.438,540.798,538.726,0.0
52659.0,STARLINK-3960,PAYLOAD,2022-07-24 22:00:00,15.08832681,0.0001512,53.2123,336.7689,61.8063,93.9981,0.00054145,8.338e-05,0.0,0 STARLINK-3960,1 52659U 22053D   22205.91667824  .00008338  00000-0  54145-3 0  9997,2 52659  53.2123 336.7689 0001512  61.8063  93.9981 15.08832681  1305,6917.903,95.438,540.814,538.722,0.0
52659.0,STARLINK-3960,PAYLOAD,2022-07-25 06:00:00,15.08817029,0.0001414,53.2131,335.2707,70.3697,97.0288,0.0027586999999999,0.00043863,0.0,0 STARLINK-3960,1 52659U 22053D   22206.25001157  .00043863  00000-0  27587-2 0  9997,2 52659  53.2131 335.2707 0001414  70.3697  97.0288 15.08817029 11437,6917.951,95.439,540.794,538.837,0.0
52659.0,STARLINK-3960,PAYLOAD,2022-07-25 14:00:01,15.08850189,0.000153,53.2138,333.7756,65.6423,113.342,-0.0010842,-0.00017506,0.0,0 STARLINK-3960,1 52659U 22053D   22206.58334491 -.00017506  00000-0 -10842-2 0  9996,2 52659  53.2138 333.7756 0001530  65.6423 113.3420 15.08850189  1303,6917.849,95.437,540.773,538.656,0.0
52659.0,STARLINK-3960,PAYLOAD,2022-07-25 22:00:00,15.08868814,0.00015,53.2138,332.2792,60.4408,130.1438,-0.0020679,-0.00033074,0.0,0 STARLINK-3960,1 52659U 22053D   22206.91667824 -.00033074  00000-0 -20679-2 0  9999,2 52659  53.2138 332.2792 0001500  60.4408 130.1438 15.08868814 11536,6917.792,95.436,540.695,538.62,0.0
52659.0,STARLINK-3960,PAYLOAD,2022-07-26 14:00:01,15.08840025,0.0001469,53.2142,329.2862,61.8754,151.9058,-0.00084141,-0.00013654,0.0,0 STARLINK-3960,1 52659U 22053D   22207.58334491 -.00013654  00000-0 -84141-3 0  9991,2 52659  53.2142 329.2862 0001469  61.8754 151.9058 15.08840025  1305,6917.88,95.438,540.762,538.729,0.0
52659.0,STARLINK-3960,PAYLOAD,2022-07-26 20:00:01,15.08825566,0.0001485,53.2143,328.1643,56.7146,75.7634,0.0024284,0.00038556,0.0,0 STARLINK-3960,1 52659U 22053D   22207.83334491  .00038556  00000-0  24284-2 0  9996,2 52659  53.2143 328.1643 0001485  56.7146  75.7634 15.08825566 11674,6917.925,95.438,540.817,538.762,0.0
52659.0,STARLINK-3960,PAYLOAD,2022-07-26 22:00:00,15.0885215,0.0001459,53.2143,327.7897,58.3298,167.03900000000004,-0.000735,-0.0001197,0.0,0 STARLINK-3960,1 52659U 22053D   22207.91667824 -.00011970  00000-0 -73500-3 0  9993,2 52659  53.2143 327.7897 0001459  58.3298 167.0390 15.08852150  1309,6917.843000000003,95.437,540.7180000000002,538.6990000000002,0.0
52659.0,STARLINK-3960,PAYLOAD,2022-07-27 14:00:01,15.08855904,0.0001501,53.2147,324.7969,60.6593,187.9182,-0.00066321,-0.00010832,0.0,0 STARLINK-3960,1 52659U 22053D   22208.58334491 -.00010832  00000-0 -66321-3 0  9997,2 52659  53.2147 324.7969 0001501  60.6593 187.9182 15.08855904 11796,6917.831999999999,95.437,540.735,538.658,0.0
52659.0,STARLINK-3960,PAYLOAD,2022-07-27 22:00:00,15.08884583,0.0001496999999999,53.2147,323.3003,59.0813,201.1021,-0.0039683,-0.00062968,0.0,0 STARLINK-3960,1 52659U 22053D   22208.91667824 -.00062968  00000-0 -39683-2 0  9990,2 52659  53.2147 323.3003 0001497  59.0813 201.1021 15.08884583  1303,6917.744000000002,95.435,540.645,538.5740000000002,0.0
52659.0,STARLINK-3960,PAYLOAD,2022-07-28 14:00:01,15.0885055,0.0001549,53.215,320.3078,61.8221,221.5738,-0.002087,-0.00033359,0.0,0 STARLINK-3960,1 52659U 22053D   22209.58334491 -.00033359  00000-0 -20870-2 0  9995,2 52659  53.2150 320.3078 0001549  61.8221 221.5738 15.08850550  1306,6917.848000000001,95.437,540.785,538.6419999999998,0.0
52659.0,STARLINK-3960,PAYLOAD,2022-07-28 22:00:00,15.08843764,0.0001435,53.2148,318.811,58.8428,236.1487,-0.0026791999999999,-0.00042679,0.0,0 STARLINK-3960,1 52659U 22053D   22209.91667824 -.00042679  00000-0 -26792-2 0  9995,2 52659  53.2148 318.8110 0001435  58.8428 236.1487 15.08843764 11999,6917.869000000002,95.437,540.727,538.741,0.0
52659.0,STARLINK-3960,PAYLOAD,2022-07-29 14:00:01,15.0882815,0.0001440999999999,53.2148,315.8189,59.9428,258.2056,-0.0004819,-7.947e-05,0.0,0 STARLINK-3960,1 52659U 22053D   22210.58334491 -.00007947  00000-0 -48190-3 0  9997,2 52659  53.2148 315.8189 0001441  59.9428 258.2056 15.08828150 12092,6917.917,95.438,540.778,538.785,0.0
52659.0,STARLINK-3960,PAYLOAD,2022-07-29 22:00:00,15.08846589,0.0001367,53.2144,314.3221,59.125,270.5955,-0.0021351,-0.00034113,0.0,0 STARLINK-3960,1 52659U 22053D   22210.91667824 -.00034113  00000-0 -21351-2 0  9997,2 52659  53.2144 314.3221 0001367  59.1250 270.5955 15.08846589  1304,6917.86,95.437,540.6709999999998,538.78,0.0
52659.0,STARLINK-3960,PAYLOAD,2022-07-30 12:00:00,15.08843904,0.000136,53.2143,311.7039,62.3872,197.611,-0.0013126,-0.00021119,0.0,0 STARLINK-3960,1 52659U 22053D   22211.50001157 -.00021119  00000-0 -13126-2 0  9997,2 52659  53.2143 311.7039 0001360  62.3872 197.6110 15.08843904 12234,6917.868,95.437,540.674,538.793,0.0
52659.0,STARLINK-3960,PAYLOAD,2022-07-30 14:00:01,15.088354999999998,0.0001414,53.2143,311.3301,60.3627,292.5356,-0.00035496,-5.932e-05,0.0,0 STARLINK-3960,1 52659U 22053D   22211.58334491 -.00005932  00000-0 -35496-3 0  9995,2 52659  53.2143 311.3301 0001414  60.3627 292.5356 15.08835500  1304,6917.894,95.438,540.737,538.781,0.0
52659.0,STARLINK-3960,PAYLOAD,2022-07-30 22:00:00,15.088551999999998,0.0001344,53.2138,309.833,60.0035,304.4785,-0.0021933,-0.00035039,0.0,0 STARLINK-3960,1 52659U 22053D   22211.91667824 -.00035039  00000-0 -21933-2 0  9992,2 52659  53.2138 309.8330 0001344  60.0035 304.4785 15.08855200  1302,6917.834,95.437,540.629,538.769,0.0
52659.0,STARLINK-3960,PAYLOAD,2022-07-31 06:00:02,15.088331599999998,0.0001284999999999,53.2138,308.3356,69.0174,307.1274,0.0018131,0.0002868,0.0,0 STARLINK-3960,1 52659U 22053D   22212.25002315  .00028680  00000-0  18131-2 0  9996,2 52659  53.2138 308.3356 0001285  69.0174 307.1274 15.08833160 12341,6917.901,95.438,540.655,538.877,0.0
52659.0,STARLINK-3960,PAYLOAD,2022-07-31 14:00:01,15.08842246,0.0001418,53.2135,306.8411,60.0044,327.6771,-6.0783e-05,-1.255e-05,0.0,0 STARLINK-3960,1 52659U 22053D   22212.58334491 -.00001255  00000-0 -60783-4 0  9998,2 52659  53.2135 306.8411 0001418  60.0044 327.6771 15.08842246  1306,6917.874,95.437,540.719,538.758,0.0
52659.0,STARLINK-3960,PAYLOAD,2022-07-31 20:00:01,15.08857206,0.0001359,53.2131,305.7184,57.2135,249.1613,-0.0011039,-0.00017822,0.0,0 STARLINK-3960,1 52659U 22053D   22212.83334491 -.00017822  00000-0 -11039-2 0  9991,2 52659  53.2131 305.7184 0001359  57.2135 249.1613 15.08857206 12431,6917.828,95.436,540.633,538.753,0.0
52659.0,STARLINK-3960,PAYLOAD,2022-07-31 22:00:00,15.08863272,0.0001345,53.2132,305.3437,59.8535,339.4218,-0.0020967,-0.00033523,0.0,0 STARLINK-3960,1 52659U 22053D   22212.91667824 -.00033523  00000-0 -20967-2 0  9995,2 52659  53.2132 305.3437 0001345  59.8535 339.4218 15.08863272  1304,6917.809,95.436,540.605,538.744,0.0
52659.0,STARLINK-3960,PAYLOAD,2022-08-01 14:00:01,15.08837292,0.0001365999999999,53.2131,302.3516,56.6163,5.8847,-0.001168,-0.00018827,0.0,0 STARLINK-3960,1 52659U 22053D   22213.58334491 -.00018827  00000-0 -11680-2 0  9992,2 52659  53.2131 302.3516 0001366  56.6163   5.8847 15.08837292  1308,6917.889,95.438,540.6990000000002,538.809,0.0
52659.0,STARLINK-3960,PAYLOAD,2022-08-01 22:00:00,15.0884527,0.0001262999999999,53.2129,300.8541,55.5366,18.5461,-0.0019196999999999,-0.00030714,0.0,0 STARLINK-3960,1 52659U 22053D   22213.91667824 -.00030714  00000-0 -19197-2 0  9998,2 52659  53.2129 300.8541 0001263  55.5366  18.5461 15.08845270 12596,6917.864000000001,95.437,540.6030000000002,538.856,0.0
